CCSDS_OMM_VERS = 2.0
CREATION_DATE  = 
ORIGINATOR     = 

OBJECT_NAME    = ATLAS CENTAUR R/B
OBJECT_ID      = 1972-065B
CENTER_NAME    = EARTH
REF_FRAME      = TEME
TIME_SYSTEM    = UTC
MEAN_ELEMENT_THEORY = SGP/SGP4

EPOCH          = 2025-12-26T02:35:21.085152
MEAN_MOTION    = 14.77442552
ECCENTRICITY   = .0033264
INCLINATION    = 35.0025
RA_OF_ASC_NODE = 16.8890
ARG_OF_PERICENTER = 111.7451
MEAN_ANOMALY   = 248.6795

EPHEMERIS_TYPE = 0
CLASSIFICATION_TYPE = U
NORAD_CAT_ID   = 6155
ELEMENT_SET_NO = 999
REV_AT_EPOCH   = 83037
BSTAR          = .16558E-3
MEAN_MOTION_DOT = .1185E-4
MEAN_MOTION_DDOT = 0

CCSDS_OMM_VERS = 2.0
CREATION_DATE  = 
ORIGINATOR     = 

OBJECT_NAME    = SL-8 R/B
OBJECT_ID      = 1975-112B
CENTER_NAME    = EARTH
REF_FRAME      = TEME
TIME_SYSTEM    = UTC
MEAN_ELEMENT_THEORY = SGP/SGP4

EPOCH          = 2025-12-25T21:47:48.041952
MEAN_MOTION    = 14.38154221
ECCENTRICITY   = .0016711
INCLINATION    = 74.0594
RA_OF_ASC_NODE = 154.6359
ARG_OF_PERICENTER = 264.6875
MEAN_ANOMALY   = 95.2373

EPHEMERIS_TYPE = 0
CLASSIFICATION_TYPE = U
NORAD_CAT_ID   = 8459
ELEMENT_SET_NO = 999
REV_AT_EPOCH   = 62126
BSTAR          = .11649E-3
MEAN_MOTION_DOT = .328E-5
MEAN_MOTION_DDOT = 0

CCSDS_OMM_VERS = 2.0
CREATION_DATE  = 
ORIGINATOR     = 

OBJECT_NAME    = SL-3 R/B
OBJECT_ID      = 1977-057B
CENTER_NAME    = EARTH
REF_FRAME      = TEME
TIME_SYSTEM    = UTC
MEAN_ELEMENT_THEORY = SGP/SGP4

EPOCH          = 2025-12-26T04:18:11.719584
MEAN_MOTION    = 15.43268917
ECCENTRICITY   = .0007377
INCLINATION    = 97.5694
RA_OF_ASC_NODE = 164.0339
ARG_OF_PERICENTER = 179.8065
MEAN_ANOMALY   = 180.3186

EPHEMERIS_TYPE = 0
CLASSIFICATION_TYPE = U
NORAD_CAT_ID   = 10114
ELEMENT_SET_NO = 999
REV_AT_EPOCH   = 65698
BSTAR          = .27665E-3
MEAN_MOTION_DOT = .12226E-3
MEAN_MOTION_DDOT = 0

CCSDS_OMM_VERS = 2.0
CREATION_DATE  = 
ORIGINATOR     = 

OBJECT_NAME    = SEASAT 1
OBJECT_ID      = 1978-064A
CENTER_NAME    = EARTH
REF_FRAME      = TEME
TIME_SYSTEM    = UTC
MEAN_ELEMENT_THEORY = SGP/SGP4

EPOCH          = 2025-12-25T19:49:12.764352
MEAN_MOTION    = 14.46075059
ECCENTRICITY   = .00013171
INCLINATION    = 108.0139
RA_OF_ASC_NODE = 330.4895
ARG_OF_PERICENTER = 256.1076
MEAN_ANOMALY   = 103.9923

EPHEMERIS_TYPE = 0
CLASSIFICATION_TYPE = U
NORAD_CAT_ID   = 10967
ELEMENT_SET_NO = 999
REV_AT_EPOCH   = 49583
BSTAR          = .1491323E-3
MEAN_MOTION_DOT = .395E-5
MEAN_MOTION_DDOT = 0

CCSDS_OMM_VERS = 2.0
CREATION_DATE  = 
ORIGINATOR     = 

OBJECT_NAME    = SL-14 R/B
OBJECT_ID      = 1979-011B
CENTER_NAME    = EARTH
REF_FRAME      = TEME
TIME_SYSTEM    = UTC
MEAN_ELEMENT_THEORY = SGP/SGP4

EPOCH          = 2025-12-26T01:39:24.564384
MEAN_MOTION    = 14.91785677
ECCENTRICITY   = .0014831
INCLINATION    = 82.5234
RA_OF_ASC_NODE = 166.4020
ARG_OF_PERICENTER = 306.8918
MEAN_ANOMALY   = 53.0942

EPHEMERIS_TYPE = 0
CLASSIFICATION_TYPE = U
NORAD_CAT_ID   = 11267
ELEMENT_SET_NO = 999
REV_AT_EPOCH   = 51780
BSTAR          = .62153E-4
MEAN_MOTION_DOT = .653E-5
MEAN_MOTION_DDOT = 0

CCSDS_OMM_VERS = 2.0
CREATION_DATE  = 
ORIGINATOR     = 

OBJECT_NAME    = SL-8 R/B
OBJECT_ID      = 1979-089B
CENTER_NAME    = EARTH
REF_FRAME      = TEME
TIME_SYSTEM    = UTC
MEAN_ELEMENT_THEORY = SGP/SGP4

EPOCH          = 2025-12-26T02:01:40.693728
MEAN_MOTION    = 14.42291698
ECCENTRICITY   = .0014742
INCLINATION    = 74.0673
RA_OF_ASC_NODE = 227.2809
ARG_OF_PERICENTER = 56.1012
MEAN_ANOMALY   = 304.1544

EPHEMERIS_TYPE = 0
CLASSIFICATION_TYPE = U
NORAD_CAT_ID   = 11574
ELEMENT_SET_NO = 999
REV_AT_EPOCH   = 42549
BSTAR          = .76009E-4
MEAN_MOTION_DOT = .225E-5
MEAN_MOTION_DDOT = 0

CCSDS_OMM_VERS = 2.0
CREATION_DATE  = 
ORIGINATOR     = 

OBJECT_NAME    = SL-14 R/B
OBJECT_ID      = 1980-005B
CENTER_NAME    = EARTH
REF_FRAME      = TEME
TIME_SYSTEM    = UTC
MEAN_ELEMENT_THEORY = SGP/SGP4

EPOCH          = 2025-12-26T02:25:16.621248
MEAN_MOTION    = 14.90806724
ECCENTRICITY   = .0017044
INCLINATION    = 82.5140
RA_OF_ASC_NODE = 17.0264
ARG_OF_PERICENTER = 52.7014
MEAN_ANOMALY   = 307.5755

EPHEMERIS_TYPE = 0
CLASSIFICATION_TYPE = U
NORAD_CAT_ID   = 11672
ELEMENT_SET_NO = 999
REV_AT_EPOCH   = 46552
BSTAR          = .58562E-4
MEAN_MOTION_DOT = .603E-5
MEAN_MOTION_DDOT = 0

CCSDS_OMM_VERS = 2.0
CREATION_DATE  = 
ORIGINATOR     = 

OBJECT_NAME    = SL-8 R/B
OBJECT_ID      = 1981-003B
CENTER_NAME    = EARTH
REF_FRAME      = TEME
TIME_SYSTEM    = UTC
MEAN_ELEMENT_THEORY = SGP/SGP4

EPOCH          = 2025-12-26T00:22:26.455008
MEAN_MOTION    = 15.07435747
ECCENTRICITY   = .0277621
INCLINATION    = 82.9351
RA_OF_ASC_NODE = 357.9868
ARG_OF_PERICENTER = 74.6707
MEAN_ANOMALY   = 288.5018

EPHEMERIS_TYPE = 0
CLASSIFICATION_TYPE = U
NORAD_CAT_ID   = 12139
ELEMENT_SET_NO = 999
REV_AT_EPOCH   = 30356
BSTAR          = .4601E-3
MEAN_MOTION_DOT = .174E-3
MEAN_MOTION_DDOT = 0

CCSDS_OMM_VERS = 2.0
CREATION_DATE  = 
ORIGINATOR     = 

OBJECT_NAME    = SL-3 R/B
OBJECT_ID      = 1981-046B
CENTER_NAME    = EARTH
REF_FRAME      = TEME
TIME_SYSTEM    = UTC
MEAN_ELEMENT_THEORY = SGP/SGP4

EPOCH          = 2025-12-26T03:31:09.237216
MEAN_MOTION    = 15.39882218
ECCENTRICITY   = .0018083
INCLINATION    = 81.2323
RA_OF_ASC_NODE = 17.8953
ARG_OF_PERICENTER = 275.2514
MEAN_ANOMALY   = 84.6664

EPHEMERIS_TYPE = 0
CLASSIFICATION_TYPE = U
NORAD_CAT_ID   = 12465
ELEMENT_SET_NO = 999
REV_AT_EPOCH   = 42710
BSTAR          = .28178E-3
MEAN_MOTION_DOT = .11293E-3
MEAN_MOTION_DDOT = 0

CCSDS_OMM_VERS = 2.0
CREATION_DATE  = 
ORIGINATOR     = 

OBJECT_NAME    = SL-3 R/B
OBJECT_ID      = 1981-103B
CENTER_NAME    = EARTH
REF_FRAME      = TEME
TIME_SYSTEM    = UTC
MEAN_ELEMENT_THEORY = SGP/SGP4

EPOCH          = 2025-12-26T03:39:31.776768
MEAN_MOTION    = 15.20389543
ECCENTRICITY   = .0012824
INCLINATION    = 81.1601
RA_OF_ASC_NODE = 299.6444
ARG_OF_PERICENTER = 166.0434
MEAN_ANOMALY   = 194.1154

EPHEMERIS_TYPE = 0
CLASSIFICATION_TYPE = U
NORAD_CAT_ID   = 12904
ELEMENT_SET_NO = 999
REV_AT_EPOCH   = 96205
BSTAR          = .2666E-3
MEAN_MOTION_DOT = .5843E-4
MEAN_MOTION_DDOT = 0

CCSDS_OMM_VERS = 2.0
CREATION_DATE  = 
ORIGINATOR     = 

OBJECT_NAME    = SL-3 R/B
OBJECT_ID      = 1982-013B
CENTER_NAME    = EARTH
REF_FRAME      = TEME
TIME_SYSTEM    = UTC
MEAN_ELEMENT_THEORY = SGP/SGP4

EPOCH          = 2025-12-26T03:04:56.466048
MEAN_MOTION    = 15.21199979
ECCENTRICITY   = .002409
INCLINATION    = 81.1738
RA_OF_ASC_NODE = 246.9377
ARG_OF_PERICENTER = 68.0626
MEAN_ANOMALY   = 292.3163

EPHEMERIS_TYPE = 0
CLASSIFICATION_TYPE = U
NORAD_CAT_ID   = 13068
ELEMENT_SET_NO = 999
REV_AT_EPOCH   = 39316
BSTAR          = .18256E-3
MEAN_MOTION_DOT = .4129E-4
MEAN_MOTION_DDOT = 0

CCSDS_OMM_VERS = 2.0
CREATION_DATE  = 
ORIGINATOR     = 

OBJECT_NAME    = SL-3 R/B
OBJECT_ID      = 1982-039B
CENTER_NAME    = EARTH
REF_FRAME      = TEME
TIME_SYSTEM    = UTC
MEAN_ELEMENT_THEORY = SGP/SGP4

EPOCH          = 2025-12-26T02:16:59.384064
MEAN_MOTION    = 15.09600486
ECCENTRICITY   = .0029436
INCLINATION    = 81.1710
RA_OF_ASC_NODE = 300.7317
ARG_OF_PERICENTER = 206.8242
MEAN_ANOMALY   = 153.1463

EPHEMERIS_TYPE = 0
CLASSIFICATION_TYPE = U
NORAD_CAT_ID   = 13154
ELEMENT_SET_NO = 999
REV_AT_EPOCH   = 37053
BSTAR          = .18672E-3
MEAN_MOTION_DOT = .3053E-4
MEAN_MOTION_DDOT = 0

