ATLAS CENTAUR R/B       
1 06155U 72065B   25360.10788293  .00001185  00000+0  16558-3 0  9993
2 06155  35.0025  16.8890 0033264 111.7451 248.6795 14.77442552830377
SL-8 R/B                
1 08459U 75112B   25359.90819493  .00000328  00000+0  11649-3 0  9995
2 08459  74.0594 154.6359 0016711 264.6875  95.2373 14.38154221621261
SL-3 R/B                
1 10114U 77057B   25360.17930231  .00012226  00000+0  27665-3 0  9996
2 10114  97.5694 164.0339 0007377 179.8065 180.3186 15.43268917656982
SEASAT 1                
1 10967U 78064A   25359.82584218  .00000395  00000+0  14913-3 0  9997
2 10967 108.0139 330.4895 0001317 256.1076 103.9923 14.46075059495835
SL-14 R/B               
1 11267U 79011B   25360.06903431  .00000653  00000+0  62153-4 0  9991
2 11267  82.5234 166.4020 0014831 306.8918  53.0942 14.91785677517803
SL-8 R/B                
1 11574U 79089B   25360.08449877  .00000225  00000+0  76009-4 0  9998
2 11574  74.0673 227.2809 0014742  56.1012 304.1544 14.42291698425491
SL-14 R/B               
1 11672U 80005B   25360.10088682  .00000603  00000+0  58562-4 0  9997
2 11672  82.5140  17.0264 0017044  52.7014 307.5755 14.90806724465529
SL-8 R/B                
1 12139U 81003B   25360.01558397  .00017400  00000+0  46010-3 0  9997
2 12139  82.9351 357.9868 0277621  74.6707 288.5018 15.07435747303560
SL-3 R/B                
1 12465U 81046B   25360.14663469  .00011293  00000+0  28178-3 0  9996
2 12465  81.2323  17.8953 0018083 275.2514  84.6664 15.39882218427103
SL-3 R/B                
1 12904U 81103B   25360.15245112  .00005843  00000+0  26660-3 0  9998
2 12904  81.1601 299.6444 0012824 166.0434 194.1154 15.20389543962051
SL-3 R/B                
1 13068U 82013B   25360.12843132  .00004129  00000+0  18256-3 0  9992
2 13068  81.1738 246.9377 0024090  68.0626 292.3163 15.21199979393160
SL-3 R/B                
1 13154U 82039B   25360.09513176  .00003053  00000+0  18672-3 0  9991
2 13154  81.1710 300.7317 0029436 206.8242 153.1463 15.09600486370533
